CCSDS_OMM_VERS = 2.0
CREATION_DATE  = 
ORIGINATOR     = 

OBJECT_NAME    = STARLINK-36110
OBJECT_ID      = 2025-286W
CENTER_NAME    = EARTH
REF_FRAME      = TEME
TIME_SYSTEM    = UTC
MEAN_ELEMENT_THEORY = SGP/SGP4

EPOCH          = 2025-12-17T06:00:00.999648
MEAN_MOTION    = 15.86828596
ECCENTRICITY   = .00008505
INCLINATION    = 53.1559
RA_OF_ASC_NODE = 27.7060
ARG_OF_PERICENTER = 83.7098
MEAN_ANOMALY   = 12.3298

EPHEMERIS_TYPE = 0
CLASSIFICATION_TYPE = U
NORAD_CAT_ID   = 66945
ELEMENT_SET_NO = 999
REV_AT_EPOCH   = 271
BSTAR          = -.63760565E-2
MEAN_MOTION_DOT = -.1451353E-1
MEAN_MOTION_DDOT = 0

CCSDS_OMM_VERS = 2.0
CREATION_DATE  = 
ORIGINATOR     = 

OBJECT_NAME    = STARLINK-36115
OBJECT_ID      = 2025-286X
CENTER_NAME    = EARTH
REF_FRAME      = TEME
TIME_SYSTEM    = UTC
MEAN_ELEMENT_THEORY = SGP/SGP4

EPOCH          = 2025-12-17T06:00:00.999648
MEAN_MOTION    = 15.86848230
ECCENTRICITY   = .00009216
INCLINATION    = 53.1560
RA_OF_ASC_NODE = 27.7015
ARG_OF_PERICENTER = 81.0040
MEAN_ANOMALY   = 17.1616

EPHEMERIS_TYPE = 0
CLASSIFICATION_TYPE = U
NORAD_CAT_ID   = 66946
ELEMENT_SET_NO = 999
REV_AT_EPOCH   = 271
BSTAR          = -.63951E-2
MEAN_MOTION_DOT = -.1456379E-1
MEAN_MOTION_DDOT = 0

CCSDS_OMM_VERS = 2.0
CREATION_DATE  = 
ORIGINATOR     = 

OBJECT_NAME    = STARLINK-36089
OBJECT_ID      = 2025-286Y
CENTER_NAME    = EARTH
REF_FRAME      = TEME
TIME_SYSTEM    = UTC
MEAN_ELEMENT_THEORY = SGP/SGP4

EPOCH          = 2025-12-17T06:00:00.999648
MEAN_MOTION    = 15.86881708
ECCENTRICITY   = .00009652
INCLINATION    = 53.1558
RA_OF_ASC_NODE = 27.6923
ARG_OF_PERICENTER = 82.2278
MEAN_ANOMALY   = 20.4355

EPHEMERIS_TYPE = 0
CLASSIFICATION_TYPE = U
NORAD_CAT_ID   = 66947
ELEMENT_SET_NO = 999
REV_AT_EPOCH   = 271
BSTAR          = -.64400561E-2
MEAN_MOTION_DOT = -.1497826E-1
MEAN_MOTION_DDOT = 0

CCSDS_OMM_VERS = 2.0
CREATION_DATE  = 
ORIGINATOR     = 

OBJECT_NAME    = STARLINK-36116
OBJECT_ID      = 2025-286Z
CENTER_NAME    = EARTH
REF_FRAME      = TEME
TIME_SYSTEM    = UTC
MEAN_ELEMENT_THEORY = SGP/SGP4

EPOCH          = 2025-12-17T06:00:00.999648
MEAN_MOTION    = 15.86857992
ECCENTRICITY   = .00008299
INCLINATION    = 53.1560
RA_OF_ASC_NODE = 27.6964
ARG_OF_PERICENTER = 86.5112
MEAN_ANOMALY   = 14.1718

EPHEMERIS_TYPE = 0
CLASSIFICATION_TYPE = U
NORAD_CAT_ID   = 66948
ELEMENT_SET_NO = 999
REV_AT_EPOCH   = 271
BSTAR          = -.64267597E-2
MEAN_MOTION_DOT = -.1493438E-1
MEAN_MOTION_DDOT = 0

CCSDS_OMM_VERS = 2.0
CREATION_DATE  = 
ORIGINATOR     = 

OBJECT_NAME    = STARLINK-36096
OBJECT_ID      = 2025-286AA
CENTER_NAME    = EARTH
REF_FRAME      = TEME
TIME_SYSTEM    = UTC
MEAN_ELEMENT_THEORY = SGP/SGP4

EPOCH          = 2025-12-17T06:00:00.999648
MEAN_MOTION    = 15.86903922
ECCENTRICITY   = .00008728
INCLINATION    = 53.1560
RA_OF_ASC_NODE = 27.6880
ARG_OF_PERICENTER = 82.2769
MEAN_ANOMALY   = 22.4054

EPHEMERIS_TYPE = 0
CLASSIFICATION_TYPE = U
NORAD_CAT_ID   = 66949
ELEMENT_SET_NO = 999
REV_AT_EPOCH   = 271
BSTAR          = -.6428127E-2
MEAN_MOTION_DOT = -.1496766E-1
MEAN_MOTION_DDOT = 0

CCSDS_OMM_VERS = 2.0
CREATION_DATE  = 
ORIGINATOR     = 

OBJECT_NAME    = STARLINK-36111
OBJECT_ID      = 2025-286AB
CENTER_NAME    = EARTH
REF_FRAME      = TEME
TIME_SYSTEM    = UTC
MEAN_ELEMENT_THEORY = SGP/SGP4

EPOCH          = 2025-12-17T06:00:00.999648
MEAN_MOTION    = 15.86951385
ECCENTRICITY   = .00009328
INCLINATION    = 53.1560
RA_OF_ASC_NODE = 27.6794
ARG_OF_PERICENTER = 84.6945
MEAN_ANOMALY   = 24.1953

EPHEMERIS_TYPE = 0
CLASSIFICATION_TYPE = U
NORAD_CAT_ID   = 66950
ELEMENT_SET_NO = 999
REV_AT_EPOCH   = 271
BSTAR          = -.65039542E-2
MEAN_MOTION_DOT = -.1515553E-1
MEAN_MOTION_DDOT = 0

CCSDS_OMM_VERS = 2.0
CREATION_DATE  = 
ORIGINATOR     = 

OBJECT_NAME    = STARLINK-35999
OBJECT_ID      = 2025-286AC
CENTER_NAME    = EARTH
REF_FRAME      = TEME
TIME_SYSTEM    = UTC
MEAN_ELEMENT_THEORY = SGP/SGP4

EPOCH          = 2025-12-17T06:00:00.999648
MEAN_MOTION    = 15.86969513
ECCENTRICITY   = .00009034
INCLINATION    = 53.1560
RA_OF_ASC_NODE = 27.6748
ARG_OF_PERICENTER = 87.8634
MEAN_ANOMALY   = 23.2463

EPHEMERIS_TYPE = 0
CLASSIFICATION_TYPE = U
NORAD_CAT_ID   = 66951
ELEMENT_SET_NO = 999
REV_AT_EPOCH   = 271
BSTAR          = -.65089116E-2
MEAN_MOTION_DOT = -.1517758E-1
MEAN_MOTION_DDOT = 0

CCSDS_OMM_VERS = 2.0
CREATION_DATE  = 
ORIGINATOR     = 

OBJECT_NAME    = STARLINK-36122
OBJECT_ID      = 2025-286AD
CENTER_NAME    = EARTH
REF_FRAME      = TEME
TIME_SYSTEM    = UTC
MEAN_ELEMENT_THEORY = SGP/SGP4

EPOCH          = 2025-12-17T06:00:00.999648
MEAN_MOTION    = 15.86927003
ECCENTRICITY   = .00009496
INCLINATION    = 53.1561
RA_OF_ASC_NODE = 27.6838
ARG_OF_PERICENTER = 83.9165
MEAN_ANOMALY   = 22.9062

EPHEMERIS_TYPE = 0
CLASSIFICATION_TYPE = U
NORAD_CAT_ID   = 66952
ELEMENT_SET_NO = 999
REV_AT_EPOCH   = 271
BSTAR          = -.64710616E-2
MEAN_MOTION_DOT = -.1507181E-1
MEAN_MOTION_DDOT = 0

CCSDS_OMM_VERS = 2.0
CREATION_DATE  = 
ORIGINATOR     = 

OBJECT_NAME    = HULIANWANG DIGUI-114
OBJECT_ID      = 2025-287A
CENTER_NAME    = EARTH
REF_FRAME      = TEME
TIME_SYSTEM    = UTC
MEAN_ELEMENT_THEORY = SGP/SGP4

EPOCH          = 2025-12-15T20:15:59.937408
MEAN_MOTION    = 13.68689195
ECCENTRICITY   = .00087999
INCLINATION    = 86.4960
RA_OF_ASC_NODE = 345.0232
ARG_OF_PERICENTER = 195.8466
MEAN_ANOMALY   = 164.2419

EPHEMERIS_TYPE = 0
CLASSIFICATION_TYPE = U
NORAD_CAT_ID   = 66953
ELEMENT_SET_NO = 999
REV_AT_EPOCH   = 95
BSTAR          = .25636052E-4
MEAN_MOTION_DOT = .39E-6
MEAN_MOTION_DDOT = 0

CCSDS_OMM_VERS = 2.0
CREATION_DATE  = 
ORIGINATOR     = 

OBJECT_NAME    = HULIANWANG DIGUI-115
OBJECT_ID      = 2025-287B
CENTER_NAME    = EARTH
REF_FRAME      = TEME
TIME_SYSTEM    = UTC
MEAN_ELEMENT_THEORY = SGP/SGP4

EPOCH          = 2025-12-16T06:46:51.247776
MEAN_MOTION    = 13.68792269
ECCENTRICITY   = .00088535
INCLINATION    = 86.4976
RA_OF_ASC_NODE = 344.8667
ARG_OF_PERICENTER = 193.3846
MEAN_ANOMALY   = 166.7079

EPHEMERIS_TYPE = 0
CLASSIFICATION_TYPE = U
NORAD_CAT_ID   = 66954
ELEMENT_SET_NO = 999
REV_AT_EPOCH   = 101
BSTAR          = .23546402E-4
MEAN_MOTION_DOT = .37E-6
MEAN_MOTION_DDOT = 0

CCSDS_OMM_VERS = 2.0
CREATION_DATE  = 
ORIGINATOR     = 

OBJECT_NAME    = HULIANWANG DIGUI-116
OBJECT_ID      = 2025-287C
CENTER_NAME    = EARTH
REF_FRAME      = TEME
TIME_SYSTEM    = UTC
MEAN_ELEMENT_THEORY = SGP/SGP4

EPOCH          = 2025-12-17T07:20:19.618368
MEAN_MOTION    = 13.68336187
ECCENTRICITY   = .00084332
INCLINATION    = 86.4912
RA_OF_ASC_NODE = 344.4828
ARG_OF_PERICENTER = 183.5256
MEAN_ANOMALY   = 176.5845

EPHEMERIS_TYPE = 0
CLASSIFICATION_TYPE = U
NORAD_CAT_ID   = 66955
ELEMENT_SET_NO = 999
REV_AT_EPOCH   = 115
BSTAR          = .16199833E-3
MEAN_MOTION_DOT = .155E-5
MEAN_MOTION_DDOT = 0

CCSDS_OMM_VERS = 2.0
CREATION_DATE  = 
ORIGINATOR     = 

OBJECT_NAME    = HULIANWANG DIGUI-117
OBJECT_ID      = 2025-287D
CENTER_NAME    = EARTH
REF_FRAME      = TEME
TIME_SYSTEM    = UTC
MEAN_ELEMENT_THEORY = SGP/SGP4

EPOCH          = 2025-12-16T06:45:06.569856
MEAN_MOTION    = 13.69018692
ECCENTRICITY   = .00077617
INCLINATION    = 86.4974
RA_OF_ASC_NODE = 344.8670
ARG_OF_PERICENTER = 181.5999
MEAN_ANOMALY   = 178.5137

EPHEMERIS_TYPE = 0
CLASSIFICATION_TYPE = U
NORAD_CAT_ID   = 66956
ELEMENT_SET_NO = 999
REV_AT_EPOCH   = 101
BSTAR          = .23352809E-4
MEAN_MOTION_DOT = .37E-6
MEAN_MOTION_DDOT = 0

