STARLINK-36110          
1 66945U 25286W   25351.25001157 -.01451353  00000+0 -63761-2 0  9998
2 66945  53.1559  27.7060 0000850  83.7098  12.3298 15.86828596  2713
STARLINK-36115          
1 66946U 25286X   25351.25001157 -.01456379  00000+0 -63951-2 0  9993
2 66946  53.1560  27.7015 0000921  81.0040  17.1616 15.86848230  2717
STARLINK-36089          
1 66947U 25286Y   25351.25001157 -.01497826  00000+0 -64401-2 0  9997
2 66947  53.1558  27.6923 0000965  82.2278  20.4355 15.86881708  2710
STARLINK-36116          
1 66948U 25286Z   25351.25001157 -.01493438  00000+0 -64268-2 0  9994
2 66948  53.1560  27.6964 0000829  86.5112  14.1718 15.86857992  2713
STARLINK-36096          
1 66949U 25286AA  25351.25001157 -.01496766  00000+0 -64281-2 0  9997
2 66949  53.1560  27.6880 0000872  82.2769  22.4054 15.86903922  2710
STARLINK-36111          
1 66950U 25286AB  25351.25001157 -.01515553  00000+0 -65040-2 0  9999
2 66950  53.1560  27.6794 0000932  84.6945  24.1953 15.86951385  2718
STARLINK-35999          
1 66951U 25286AC  25351.25001157 -.01517758  00000+0 -65089-2 0  9992
2 66951  53.1560  27.6748 0000903  87.8634  23.2463 15.86969513  2714
STARLINK-36122          
1 66952U 25286AD  25351.25001157 -.01507181  00000+0 -64711-2 0  9993
2 66952  53.1561  27.6838 0000949  83.9165  22.9062 15.86927003  2711
HULIANWANG DIGUI-114    
1 66953U 25287A   25349.84444372  .00000039  00000+0  25636-4 0  9999
2 66953  86.4960 345.0232 0008799 195.8466 164.2419 13.68689195   952
HULIANWANG DIGUI-115    
1 66954U 25287B   25350.28253759  .00000037  00000+0  23546-4 0  9993
2 66954  86.4976 344.8667 0008853 193.3846 166.7079 13.68792269  1019
HULIANWANG DIGUI-116    
1 66955U 25287C   25351.30578262  .00000155  00000+0  16200-3 0  9996
2 66955  86.4912 344.4828 0008433 183.5256 176.5845 13.68336187  1153
HULIANWANG DIGUI-117    
1 66956U 25287D   25350.28132604  .00000037  00000+0  23353-4 0  9996
2 66956  86.4974 344.8670 0007761 181.5999 178.5137 13.69018692  1016
